PELICAN-1               
1 58296U 23174AS  26183.26411404  .00011586  00000+0  87814-4 0  9991
2 58296  97.4008 284.5560 0003297 150.8230 209.3218 15.72540585148538
PELICAN-2               
1 62631U 25009Y   26185.71177882  .00000079  00000+0  39302-5 0  9994
2 62631  97.2298 276.3998 0002156 124.6492 235.4958 15.40640974 82256
PELICAN-3               
1 65315U 25188A   26186.16635188  .00013285  00000+0  32481-3 0  9994
2 65315  97.1979 262.0478 0001647 105.8185 254.3244 15.40926018 48089
PELICAN-4               
1 65316U 25188B   26186.18367139  .00013559  00000+0  33179-3 0  9994
2 65316  97.1991 262.2190 0000865  93.9893 266.1453 15.40895036 48089
PELICAN-6               
1 66703U 25276AP  26183.95341110  .00071117  00000+0  23637-2 0  9997
2 66703  97.3866 259.0010 0001668  34.9015 325.2335 15.30913957 32947
PELICAN-7               
1 69017U 26100AP  26186.27667324  .00005183  00000+0  22123-3 0  9991
2 69017  97.3930  83.8759 0003435  99.9049 260.2576 15.23324140  9564
PELICAN-9               
1 69019U 26100AR  26186.44093758  .00009124  00000+0  40646-3 0  9995
2 69019  97.3809  83.9024 0003109  13.2173 346.9144 15.21656203  9583
