{"fetched_at":"2026-07-06T08:46:41.353Z","source":"https://celestrak.org/NORAD/elements/gp.php?GROUP=planet&FORMAT=JSON","constellation":"pelican","records":[{"OBJECT_NAME":"PELICAN-1","OBJECT_ID":"2023-174AS","EPOCH":"2026-07-02T06:20:19.453056","CLASSIFICATION_TYPE":"U","MEAN_MOTION":15.72540585,"ECCENTRICITY":0.0003297,"INCLINATION":97.4008,"RA_OF_ASC_NODE":284.556,"ARG_OF_PERICENTER":150.823,"MEAN_ANOMALY":209.3218,"EPHEMERIS_TYPE":0,"NORAD_CAT_ID":58296,"ELEMENT_SET_NO":999,"REV_AT_EPOCH":14853,"BSTAR":0.000087814,"MEAN_MOTION_DOT":0.00011586,"MEAN_MOTION_DDOT":0},{"OBJECT_NAME":"PELICAN-2","OBJECT_ID":"2025-009Y","EPOCH":"2026-07-04T17:04:57.690048","CLASSIFICATION_TYPE":"U","MEAN_MOTION":15.40640974,"ECCENTRICITY":0.0002157,"INCLINATION":97.2298,"RA_OF_ASC_NODE":276.3998,"ARG_OF_PERICENTER":124.6492,"MEAN_ANOMALY":235.4958,"EPHEMERIS_TYPE":0,"NORAD_CAT_ID":62631,"ELEMENT_SET_NO":999,"REV_AT_EPOCH":8225,"BSTAR":0.0000039302,"MEAN_MOTION_DOT":7.9e-7,"MEAN_MOTION_DDOT":0},{"OBJECT_NAME":"PELICAN-3","OBJECT_ID":"2025-188A","EPOCH":"2026-07-05T03:59:32.802432","CLASSIFICATION_TYPE":"U","MEAN_MOTION":15.40926018,"ECCENTRICITY":0.0001648,"INCLINATION":97.1979,"RA_OF_ASC_NODE":262.0478,"ARG_OF_PERICENTER":105.8185,"MEAN_ANOMALY":254.3244,"EPHEMERIS_TYPE":0,"NORAD_CAT_ID":65315,"ELEMENT_SET_NO":999,"REV_AT_EPOCH":4808,"BSTAR":0.00032481,"MEAN_MOTION_DOT":0.00013285,"MEAN_MOTION_DDOT":0},{"OBJECT_NAME":"PELICAN-4","OBJECT_ID":"2025-188B","EPOCH":"2026-07-05T04:24:29.208096","CLASSIFICATION_TYPE":"U","MEAN_MOTION":15.40895036,"ECCENTRICITY":0.0000865,"INCLINATION":97.1991,"RA_OF_ASC_NODE":262.219,"ARG_OF_PERICENTER":93.9893,"MEAN_ANOMALY":266.1453,"EPHEMERIS_TYPE":0,"NORAD_CAT_ID":65316,"ELEMENT_SET_NO":999,"REV_AT_EPOCH":4808,"BSTAR":0.00033179,"MEAN_MOTION_DOT":0.00013559,"MEAN_MOTION_DDOT":0},{"OBJECT_NAME":"PELICAN-6","OBJECT_ID":"2025-276AP","EPOCH":"2026-07-02T22:52:54.719040","CLASSIFICATION_TYPE":"U","MEAN_MOTION":15.30913957,"ECCENTRICITY":0.0001668,"INCLINATION":97.3866,"RA_OF_ASC_NODE":259.001,"ARG_OF_PERICENTER":34.9015,"MEAN_ANOMALY":325.2335,"EPHEMERIS_TYPE":0,"NORAD_CAT_ID":66703,"ELEMENT_SET_NO":999,"REV_AT_EPOCH":3294,"BSTAR":0.0023637,"MEAN_MOTION_DOT":0.00071117,"MEAN_MOTION_DDOT":0},{"OBJECT_NAME":"PELICAN-7","OBJECT_ID":"2026-100AP","EPOCH":"2026-07-05T06:38:24.567936","CLASSIFICATION_TYPE":"U","MEAN_MOTION":15.2332414,"ECCENTRICITY":0.00034354,"INCLINATION":97.393,"RA_OF_ASC_NODE":83.8759,"ARG_OF_PERICENTER":99.9049,"MEAN_ANOMALY":260.2576,"EPHEMERIS_TYPE":0,"NORAD_CAT_ID":69017,"ELEMENT_SET_NO":999,"REV_AT_EPOCH":956,"BSTAR":0.00022123486,"MEAN_MOTION_DOT":0.00005183,"MEAN_MOTION_DDOT":0},{"OBJECT_NAME":"PELICAN-9","OBJECT_ID":"2026-100AR","EPOCH":"2026-07-05T10:34:57.006912","CLASSIFICATION_TYPE":"U","MEAN_MOTION":15.21656203,"ECCENTRICITY":0.00031094,"INCLINATION":97.3809,"RA_OF_ASC_NODE":83.9024,"ARG_OF_PERICENTER":13.2173,"MEAN_ANOMALY":346.9144,"EPHEMERIS_TYPE":0,"NORAD_CAT_ID":69019,"ELEMENT_SET_NO":999,"REV_AT_EPOCH":958,"BSTAR":0.00040646453,"MEAN_MOTION_DOT":0.00009124,"MEAN_MOTION_DDOT":0}]}
